BEIDOU-2 IGSO-1 (C06)   
1 36828U 10036A   25265.64289402 -.00000113  00000+0  00000+0 0  9996
2 36828  54.2777 165.3864 0048048 215.8861 315.7671  1.00249230 55415
BEIDOU-2 G4 (C04)       
1 37210U 10057A   25265.49292155 -.00000116  00000+0  00000+0 0  9990
2 37210   2.9780  70.1886 0008452 171.4384  97.4828  1.00271685 54601
BEIDOU-2 IGSO-2 (C07)   
1 37256U 10068A   25265.45719725 -.00000185  00000+0  00000+0 0  9991
2 37256  48.0312 275.1475 0048303 217.0206 140.4197  1.00258108 54101
BEIDOU-2 IGSO-3 (C08)   
1 37384U 11013A   25265.31445659 -.00000178  00000+0  00000+0 0  9993
2 37384  62.0358  42.6907 0036375 180.3731 357.8936  1.00291010 52974
BEIDOU-2 IGSO-4 (C09)   
1 37763U 11038A   25264.69932582 -.00000095  00000+0  00000+0 0  9995
2 37763  54.5791 168.0864 0144789 230.7013 306.8452  1.00258855 51953
BEIDOU-2 IGSO-5 (C10)   
1 37948U 11073A   25261.62652626 -.00000153  00000+0  00000+0 0  9992
2 37948  48.1756 274.9018 0110233 221.5515 182.5822  1.00265915 50413
BEIDOU-2 G5 (C05)       
1 38091U 12008A   25265.61680346  .00000053  00000+0  00000+0 0  9992
2 38091   2.9021  70.9785 0007419 223.9926 347.5315  1.00269830 49681
BEIDOU-2 M3 (C11)       
1 38250U 12018A   25264.17269374 -.00000066  00000+0  00000+0 0  9999
2 38250  55.9870 313.9338 0024210 267.4288  92.3658  1.86229778 90934
BEIDOU-2 M4 (C12)       
1 38251U 12018B   25264.64230154 -.00000067  00000+0  00000+0 0  9997
2 38251  55.8892 313.1536 0015258 267.0044  92.8920  1.86232167 90942
BEIDOU-2 M6 (C14)       
1 38775U 12050B   25264.88999584 -.00000017  00000+0  00000+0 0  9994
2 38775  56.3070  71.7811 0010949 357.3249   2.6932  1.86231045 88316
BEIDOU-2 G6 (C02)       
1 38953U 12059A   25265.52384422 -.00000179  00000+0  00000+0 0  9991
2 38953   3.7372  76.3162 0006252 311.1549 246.7473  1.00270215 47222
BEIDOU-3S IGSO-1S (C31) 
1 40549U 15019A   25262.57405994 -.00000137  00000+0  00000+0 0  9998
2 40549  49.7080 298.7218 0041177 196.3453 162.7353  1.00257667 38350
BEIDOU-3S M2S (C58)     
1 40748U 15037A   25264.30977992 -.00000065  00000+0  00000+0 0  9994
2 40748  55.1084 311.2941 0012487 255.2617 104.6696  1.86229291 69118
BEIDOU-3S M1S (C57)     
1 40749U 15037B   25264.01399549 -.00000064  00000+0  00000+0 0  9998
2 40749  55.1053 311.2948 0002463 354.4136   5.6537  1.86254032 69118
BEIDOU-3S IGSO-2S (C56) 
1 40938U 15053A   25265.45477057 -.00000124  00000+0  00000+0 0  9993
2 40938  49.6403 261.9652 0061990 189.7648 168.0571  1.00289162 36669
BEIDOU-2 IGSO-6 (C13)   
1 41434U 16021A   25265.34191821 -.00000156  00000+0  00000+0 0  9996
2 41434  59.8543  40.7119 0056813 227.9502 311.2794  1.00269573 34797
BEIDOU-2 G7 (C03)       
1 41586U 16037A   25265.64536840 -.00000359  00000+0  00000+0 0  9993
2 41586   1.5548  66.6424 0005746 347.1720 290.8042  1.00275444  4201
BEIDOU-3 M1 (C19)       
1 43001U 17069A   25264.11860076 -.00000011  00000+0  00000+0 0  9990
2 43001  56.4551  71.9624 0007163 316.3958  43.5754  1.86231351 53597
BEIDOU-3 M2 (C20)       
1 43002U 17069B   25265.13072490 -.00000018  00000+0  00000+0 0  9996
2 43002  56.4551  71.9652 0005850 355.2259   4.7918  1.86230914 53603
BEIDOU-3 M7 (C27)       
1 43107U 18003A   25264.33800267 -.00000067  00000+0  00000+0 0  9997
2 43107  54.5667 311.6808 0002642  96.7321 263.3671  1.86232597 52344
BEIDOU-3 M8 (C28)       
1 43108U 18003B   25264.28223513 -.00000067  00000+0  00000+0 0  9995
2 43108  54.5596 311.6659 0004742 257.4517 102.5644  1.86231046 52359
BEIDOU-3 M4 (C22)       
1 43207U 18018A   25264.72377838 -.00000015  00000+0  00000+0 0  9993
2 43207  56.4148  72.0156 0005513  37.7761 322.2879  1.86231298 51742
BEIDOU-3 M3 (C21)       
1 43208U 18018B   25264.79035414 -.00000016  00000+0  00000+0 0  9993
2 43208  56.4142  72.0175 0005287 339.1189  20.8845  1.86231309 51746
BEIDOU-3 M9 (C29)       
1 43245U 18029A   25265.00681867 -.00000066  00000+0  00000+0 0  9995
2 43245  54.4368 309.3185 0002038 238.4444 121.6026  1.86232940 50908
BEIDOU-3 M10 (C30)      
1 43246U 18029B   25264.94135611 -.00000065  00000+0  00000+0 0  9998
2 43246  54.4343 309.3484 0002699 358.9220   1.1445  1.86229250 50881
BEIDOU-2 IGSO-7 (C16)   
1 43539U 18057A   25265.64524541 -.00000130  00000+0  00000+0 0  9999
2 43539  55.1685 165.3829 0092070 236.3965 304.4392  1.00282091 26446
BEIDOU-3 M5 (C23)       
1 43581U 18062A   25264.09215693 -.00000026  00000+0  00000+0 0  9999
2 43581  54.0941 191.4541 0004016 303.1230  56.8304  1.86228804 48629
BEIDOU-3 M6 (C24)       
1 43582U 18062B   25264.49266475 -.00000020  00000+0  00000+0 0  9992
2 43582  54.0937 191.4297 0006064  23.6845 336.3379  1.86229924 48637
BEIDOU-3 M12 (C26)      
1 43602U 18067A   25263.89259253 -.00000028  00000+0  00000+0 0  9997
2 43602  54.1879 190.1736 0008245  31.2328 328.8095  1.86227663 48105
BEIDOU-3 M11 (C25)      
1 43603U 18067B   25265.10082284 -.00000011  00000+0  00000+0 0  9994
2 43603  54.1849 190.0969 0004864  20.2506 339.7702  1.86227194 48159
BEIDOU-3 M13 (C32)      
1 43622U 18072A   25265.05828120 -.00000019  00000+0  00000+0 0  9990
2 43622  56.3875  71.5230 0003955 318.6896  41.3034  1.86231241 47660
BEIDOU-3 M14 (C33)      
1 43623U 18072B   25264.38680215 -.00000014  00000+0  00000+0 0  9992
2 43623  56.3889  71.5391 0003327  18.3007 341.7372  1.86231233 47646
BEIDOU-3 M16 (C35)      
1 43647U 18078A   25264.00878284 -.00000063  00000+0  00000+0 0  9992
2 43647  54.3341 309.4138 0005831  21.4320 338.6610  1.86232381 47140
BEIDOU-3 M15 (C34)      
1 43648U 18078B   25264.13797000 -.00000063  00000+0  00000+0 0  9993
2 43648  54.3297 309.4105 0002421  27.1937 332.8873  1.86232367 47167
BEIDOU-3 G1 (C59)       
1 43683U 18085A   25265.55463404 -.00000281  00000+0  00000+0 0  9997
2 43683   2.9011 105.0386 0003585   9.9085 226.4554  1.00271098 25377
BEIDOU-3 M17 (C36)      
1 43706U 18093A   25263.36421074 -.00000035  00000+0  00000+0 0  9993
2 43706  54.1776 191.4511 0008780 295.4563 160.4459  1.86228350 46511
BEIDOU-3 M18 (C37)      
1 43707U 18093B   25265.23042777 -.00000010  00000+0  00000+0 0  9994
2 43707  54.1781 191.3797 0007461 328.5190  31.4361  1.86230090 46548
BEIDOU-3 IGSO-1 (C38)   
1 44204U 19023A   25264.85267194 -.00000214  00000+0  00000+0 0  9996
2 44204  58.3207  40.4219 0025569 216.5796 169.6995  1.00269209  4529
BEIDOU-2 G8 (C01)       
1 44231U 19027A   25265.55743238 -.00000253  00000+0  00000+0 0  9999
2 44231   1.4518  74.3746 0006736 260.7496  11.7198  1.00269299 23394
BEIDOU-3 IGSO-2 (C39)   
1 44337U 19035A   25247.72162405 -.00000168  00000+0  00000+0 0  9990
2 44337  55.2150 161.3741 0035069 208.7975 349.2962  1.00246132 22801
BEIDOU-3 M24 (C46)      
1 44542U 19061A   25265.30182618 -.00000009  00000+0  00000+0 0  9993
2 44542  54.4052 191.7637 0008860   5.7092 354.3002  1.86229453 40809
BEIDOU-3 M23 (C45)      
1 44543U 19061B   25263.55808782 -.00000033  00000+0  00000+0 0  9993
2 44543  54.4041 191.7907 0005752 352.1871 191.5331  1.86229602 40777
BEIDOU-3 IGSO-3 (C40)   
1 44709U 19073A   25265.45336530 -.00000165  00000+0  00000+0 0  9994
2 44709  55.2612 283.7918 0045601 191.8076 168.1183  1.00268629 21772
BEIDOU-3 M22 (C44)      
1 44793U 19078A   25264.06911623 -.00000063  00000+0  00000+0 0  9997
2 44793  54.1806 309.2870 0004504  28.5534 331.5395  1.86232220 39638
BEIDOU-3 M21 (C43)      
1 44794U 19078B   25264.20487954 -.00000064  00000+0  00000+0 0  9990
2 44794  54.1539 309.2489 0002734  22.0184 338.0613  1.86227858 39648
BEIDOU-3 M19 (C41)      
1 44864U 19090A   25264.46373029 -.00000014  00000+0  00000+0 0  9992
2 44864  56.3199  71.6882 0015497 287.0796  81.5351  1.86231655 39235
BEIDOU-3 M20 (C42)      
1 44865U 19090B   25265.12082361 -.00000019  00000+0  00000+0 0  9998
2 44865  56.3243  71.7007 0012944 302.5305 236.2531  1.86231629 39228
BEIDOU-3 G2 (C60)       
1 45344U 20017A   25265.52315088 -.00000146  00000+0  00000+0 0  9992
2 45344   2.8468  42.2106 0001455 279.4550 308.3358  1.00272988 20573
BEIDOU-3 G3 (C61)       
1 45807U 20040A   25265.64536833 -.00000358  00000+0  00000+0 0  9993
2 45807   1.7904  65.6708 0004287 329.5727 309.4122  1.00269943 19381
BEIDOU-3 G4 (C62)       
1 56564U 23066A   25265.62260704 -.00000118  00000+0  00000+0 0  9999
2 56564   1.0003 296.4938 0005811 213.4801 235.9584  1.00272107  8719
BEIDOU-3 M28 (C50)      
1 58654U 23207A   25257.84021662 -.00000003  00000+0  00000+0 0  9994
2 58654  55.6103  71.5942 0004602 147.7169 212.3485  1.86230208 11710
BEIDOU-3 M26 (C48)      
1 58655U 23207B   25264.61895808 -.00000018  00000+0  00000+0 0  9995
2 58655  55.5136  71.3656 0001200 226.5702 133.4450  1.86231547 11820
BEIDOU-3 M25 (C47)      
1 61186U 24168B   25264.40501124 -.00000067  00000+0  00000+0 0  9991
2 61186  54.7117 311.5735 0004963 280.4495  53.3297  1.86230253  6777
BEIDOU-3 M27 (C49)      
1 61187U 24168C   25264.27758068 -.00000066  00000+0  00000+0 0  9997
2 61187  54.7073 311.5618 0001201 305.1329  78.1178  1.86230320  4251
